GLOBALSTAR M023 [+]     
1 25621U 99004A   23268.91925113 -.00000213  00000+0 -61045-3 0  9996
2 25621  52.0106 172.5062 0009608 169.0748 270.5355 12.62445043136124
GLOBALSTAR M040 [-]     
1 25622U 99004B   23268.51303045 -.00000072  00000+0  17624-3 0  9993
2 25622  51.9912 176.9784 0001161  73.3337  97.4941 12.61954677135622
GLOBALSTAR M036 [-]     
1 25623U 99004C   23268.86424375 -.00000089  00000+0 -90647-4 0  9998
2 25623  51.9951 101.6383 0010182 288.3599 175.3764 11.86553510104157
GLOBALSTAR M038 [-]     
1 25624U 99004D   23268.79676208 -.00000059  00000+0  29848-3 0  9995
2 25624  51.9961  86.9501 0001908 152.4482 220.9038 12.32484608124644
GLOBALSTAR M022 [-]     
1 25649U 99012A   23268.61025869 -.00000092  00000+0 -56486-4 0  9990
2 25649  52.0031 205.0514 0003059  11.2299 159.6789 12.02469424100513
GLOBALSTAR M041 [-]     
1 25650U 99012B   23268.83195986 -.00000044  00000+0  53421-3 0  9995
2 25650  52.0022  66.6798 0002508 135.7265 224.3773 11.96646787102812
GLOBALSTAR M046 [-]     
1 25651U 99012C   23268.90909153  .00000009  00000+0  10757-2 0  9997
2 25651  52.0046 177.3778 0002823  69.3477   9.7068 12.09377981107408
GLOBALSTAR M037 [+]     
1 25652U 99012D   23268.38120818 -.00000057  00000+0  26306-3 0  9995
2 25652  52.0008 305.0080 0001631 221.6578 152.0588 12.62383418131603
